GRBBETA                 
1 60237U 24128C   26139.81216549  .00002903  00000+0  20657-3 0  9998
2 60237  61.9903 315.8018 0044531 128.7809 231.7275 15.06380239101990
TRANSPORTER-11 OBJECT A 
1 60468U 24149A   26140.27537810  .00005859  00000+0  18976-3 0  9990
2 60468  97.3731 220.3025 0002248 349.1824  10.9370 15.32405340 97785
WARATAH SEED-1          
1 60469U 24149B   26140.15528259  .00009542  00000+0  28184-3 0  9990
2 60469  97.3687 220.7201 0001140  27.7796 332.3508 15.35168385 97819
PHISAT 2                
1 60470U 24149C   26140.20134986  .00005803  00000+0  19867-3 0  9992
2 60470  97.3758 219.5829 0001655  44.6768 315.4606 15.30613818 97711
LEMUR-2-TOMATOKECHUP    
1 60471U 24149D   26140.21947158  .00007797  00000+0  22914-3 0  9998
2 60471  97.3797 222.2089 0001348  39.8359 320.2984 15.35391524 97877
CONNECTA IOT-1          
1 60472U 24149E   26140.18020641  .00002708  00000+0  11710-3 0  9993
2 60472  97.3761 216.9490 0002801  53.4183 306.7311 15.23298501 97531
LOPEN                   
1 60473U 24149F   26140.17644539  .00011519  00000+0  30232-3 0  9991
2 60473  97.3775 223.3443 0001678  58.6892 301.4518 15.38799054 97954
ROCK                    
1 60474U 24149G   26140.16299578  .00011454  00000+0  30061-3 0  9998
2 60474  97.3773 223.3482 0001620  46.7224 313.4156 15.38802907 97953
CONNECTA IOT-3          
1 60475U 24149H   26140.20179781  .00002718  00000+0  11751-3 0  9995
2 60475  97.3736 216.7316 0003377  34.6001 325.5455 15.23309213 97542
QUBE                    
1 60476U 24149J   26140.22121566  .00017926  00000+0  37158-3 0  9992
2 60476  97.3774 226.1460 0001078  21.6709 338.4585 15.45794357 98142
WREN-1                  
1 60478U 24149L   26140.21154842  .00015008  00000+0  37343-3 0  9991
2 60478  97.3763 224.0559 0003917  24.3762 335.7669 15.40364410 98018
TOMORROW-S1             
1 60479U 24149M   26140.19015160  .00005256  00000+0  17113-3 0  9995
2 60479  97.3749 220.7598 0002484  27.0626 333.0745 15.32284527 97809
FLOCK 4BE-18            
1 60480U 24149N   26140.29523065  .00012730  00000+0  31183-3 0  9994
2 60480  97.3728 223.7542 0003118  22.4306 337.7077 15.40881609 98015
FLOCK 4BE-7             
1 60481U 24149P   26140.20746990  .00016890  00000+0  43811-3 0  9992
2 60481  97.3755 223.0648 0002537  35.5680 324.5734 15.39069295 97942
TOMORROW-S2             
1 60485U 24149T   26140.22109643  .00005305  00000+0  17262-3 0  9996
2 60485  97.3815 221.2531 0003352  43.7107 316.4400 15.32298800 97809
FLOCK 4BE-36            
1 60486U 24149U   26140.21773806  .00012119  00000+0  28844-3 0  9993
2 60486  97.3741 224.3317 0003504  36.0823 324.0660 15.41764741 98045
FLOCK 4BE-25            
1 60487U 24149V   26140.18425130  .00009848  00000+0  26533-3 0  9992
2 60487  97.3797 223.1617 0002170  46.7961 313.3465 15.38030903 97939
FLOCK 4BE-31            
1 60488U 24149W   26140.20663239  .00014287  00000+0  32681-3 0  9994
2 60488  97.3794 225.1032 0002651  49.0415 311.1061 15.42920962 98065
FLOCK 4BE-20            
1 60489U 24149X   26140.19861025  .00009725  00000+0  26868-3 0  9997
2 60489  97.3695 222.1266 0003561  34.2583 325.8891 15.37253614 97918
FLOCK 4BE-23            
1 60490U 24149Y   26140.18215377  .00010465  00000+0  29228-3 0  9997
2 60490  97.3779 222.4704 0003560  43.1515 317.0008 15.36894285 97890
FLOCK 4BE-15            
1 60491U 24149Z   26140.19193528  .00091560  00000+0  14331-2 0  9995
2 60491  97.3691 224.6495 0002902 133.6827 226.4668 15.53424884 98074
FLOCK 4BE-17            
1 60492U 24149AA  26140.20358863  .00011780  00000+0  30821-3 0  9992
2 60492  97.3771 223.3710 0002726  34.9226 325.2197 15.38888041 97953
NUSAT-50 (NANCY ROMAN)  
1 60493U 24149AB  26140.16898775  .00006290  00000+0  22386-3 0  9996
2 60493  97.3786 221.6314 0001825 312.2722  47.8364 15.29315949 97846
FLOCK 4BE-22            
1 60494U 24149AC  26140.20988041  .00011841  00000+0  29635-3 0  9990
2 60494  97.3730 223.5260 0003504  37.6643 322.4849 15.40244080 97999
FLOCK 4BE-34            
1 60495U 24149AD  26140.29222685  .00011585  00000+0  28969-3 0  9999
2 60495  97.3778 224.4132 0003868  47.9377 312.2197 15.40276182 98038
TYCHE                   
1 60496U 24149AE  26140.26500321  .00003063  00000+0  12262-3 0  9994
2 60496  97.3754 218.4555 0003072  49.0864 311.0640 15.25820492 97644
FLOCK 4BE-32            
1 60497U 24149AF  26140.21256459  .00014537  00000+0  35301-3 0  9997
2 60497  97.3719 223.8598 0003712  43.8734 316.2806 15.41111607 98025
NUSAT-48 (HENRIETTA LE*)
1 60498U 24149AG  26140.29588683  .00006822  00000+0  23797-3 0  9997
2 60498  97.3904 221.9371 0004315  36.5688 323.5846 15.29935578 97871
FLOCK 4BE-30            
1 60499U 24149AH  26140.29276585  .00073831  00000+0  13217-2 0  9992
2 60499  97.3783 225.0231 0001967 167.6838 192.4461 15.49718071 97448
