OBJECT_NAME,OBJECT_ID,EPOCH,MEAN_MOTION,ECCENTRICITY,INCLINATION,RA_OF_ASC_NODE,ARG_OF_PERICENTER,MEAN_ANOMALY,EPHEMERIS_TYPE,CLASSIFICATION_TYPE,NORAD_CAT_ID,ELEMENT_SET_NO,REV_AT_EPOCH,BSTAR,MEAN_MOTION_DOT,MEAN_MOTION_DDOT
GRBBETA,2024-128C,2026-05-19T19:29:31.098336,15.06380239,.00445314,61.9903,315.8018,128.7809,231.7275,0,U,60237,999,10199,.20656614E-3,.2903E-4,0
TRANSPORTER-11 OBJECT A,2024-149A,2026-05-20T06:36:32.667840,15.32405340,.00022486,97.3731,220.3025,349.1824,10.9370,0,U,60468,999,9778,.18976091E-3,.5859E-4,0
WARATAH SEED-1,2024-149B,2026-05-20T03:43:36.415776,15.35168385,.000114,97.3687,220.7201,27.7796,332.3508,0,U,60469,999,9781,.28183621E-3,.9542E-4,0
PHISAT 2,2024-149C,2026-05-20T04:49:56.627904,15.30613818,.00016554,97.3758,219.5829,44.6768,315.4606,0,U,60470,999,9771,.19867488E-3,.5803E-4,0
LEMUR-2-TOMATOKECHUP,2024-149D,2026-05-20T05:16:02.344512,15.35391524,.00013488,97.3797,222.2089,39.8359,320.2984,0,U,60471,999,9787,.22914054E-3,.7797E-4,0
CONNECTA IOT-1,2024-149E,2026-05-20T04:19:29.833824,15.23298501,.00028017,97.3761,216.9490,53.4183,306.7311,0,U,60472,999,9753,.11710372E-3,.2708E-4,0
LOPEN,2024-149F,2026-05-20T04:14:04.881696,15.38799054,.0001678,97.3775,223.3443,58.6892,301.4518,0,U,60473,999,9795,.30232042E-3,.11519E-3,0
ROCK,2024-149G,2026-05-20T03:54:42.835392,15.38802907,.00016205,97.3773,223.3482,46.7224,313.4156,0,U,60474,999,9795,.30060725E-3,.11454E-3,0
CONNECTA IOT-3,2024-149H,2026-05-20T04:50:35.330784,15.23309213,.00033776,97.3736,216.7316,34.6001,325.5455,0,U,60475,999,9754,.11751067E-3,.2718E-4,0
QUBE,2024-149J,2026-05-20T05:18:33.033024,15.45794357,.00010788,97.3774,226.1460,21.6709,338.4585,0,U,60476,999,9814,.37157606E-3,.17926E-3,0
WREN-1,2024-149L,2026-05-20T05:04:37.783488,15.40364410,.00039171,97.3763,224.0559,24.3762,335.7669,0,U,60478,999,9801,.37342839E-3,.15008E-3,0
TOMORROW-S1,2024-149M,2026-05-20T04:33:49.098240,15.32284527,.00024846,97.3749,220.7598,27.0626,333.0745,0,U,60479,999,9780,.17113107E-3,.5256E-4,0
FLOCK 4BE-18,2024-149N,2026-05-20T07:05:07.928160,15.40881609,.00031186,97.3728,223.7542,22.4306,337.7077,0,U,60480,999,9801,.31183012E-3,.1273E-3,0
FLOCK 4BE-7,2024-149P,2026-05-20T04:58:45.399360,15.39069295,.00025371,97.3755,223.0648,35.5680,324.5734,0,U,60481,999,9794,.43811028E-3,.1689E-3,0
TOMORROW-S2,2024-149T,2026-05-20T05:18:22.731552,15.32298800,.00033527,97.3815,221.2531,43.7107,316.4400,0,U,60485,999,9780,.17262037E-3,.5305E-4,0
FLOCK 4BE-36,2024-149U,2026-05-20T05:13:32.568384,15.41764741,.00035048,97.3741,224.3317,36.0823,324.0660,0,U,60486,999,9804,.28843765E-3,.12119E-3,0
FLOCK 4BE-25,2024-149V,2026-05-20T04:25:19.312320,15.38030903,.00021703,97.3797,223.1617,46.7961,313.3465,0,U,60487,999,9793,.26532989E-3,.9848E-4,0
FLOCK 4BE-31,2024-149W,2026-05-20T04:57:33.038496,15.42920962,.00026514,97.3794,225.1032,49.0415,311.1061,0,U,60488,999,9806,.32681049E-3,.14287E-3,0
FLOCK 4BE-20,2024-149X,2026-05-20T04:45:59.925600,15.37253614,.00035615,97.3695,222.1266,34.2583,325.8891,0,U,60489,999,9791,.26867623E-3,.9725E-4,0
FLOCK 4BE-23,2024-149Y,2026-05-20T04:22:18.085728,15.36894285,.00035605,97.3779,222.4704,43.1515,317.0008,0,U,60490,999,9789,.29228039E-3,.10465E-3,0
FLOCK 4BE-15,2024-149Z,2026-05-20T04:36:23.208192,15.53424884,.00029023,97.3691,224.6495,133.6827,226.4668,0,U,60491,999,9807,.143313E-2,.9156E-3,0
FLOCK 4BE-17,2024-149AA,2026-05-20T04:53:10.057632,15.38888041,.00027264,97.3771,223.3710,34.9226,325.2197,0,U,60492,999,9795,.30820718E-3,.1178E-3,0
NUSAT-50 (NANCY ROMAN),2024-149AB,2026-05-20T04:03:20.541600,15.29315949,.0001825,97.3786,221.6314,312.2722,47.8364,0,U,60493,999,9784,.22386471E-3,.629E-4,0
FLOCK 4BE-22,2024-149AC,2026-05-20T05:02:13.667424,15.40244080,.00035048,97.3730,223.5260,37.6643,322.4849,0,U,60494,999,9799,.29634801E-3,.11841E-3,0
FLOCK 4BE-34,2024-149AD,2026-05-20T07:00:48.399840,15.40276182,.00038685,97.3778,224.4132,47.9377,312.2197,0,U,60495,999,9803,.28968822E-3,.11585E-3,0
TYCHE,2024-149AE,2026-05-20T06:21:36.277344,15.25820492,.00030723,97.3754,218.4555,49.0864,311.0640,0,U,60496,999,9764,.12261554E-3,.3063E-4,0
FLOCK 4BE-32,2024-149AF,2026-05-20T05:06:05.580576,15.41111607,.00037122,97.3719,223.8598,43.8734,316.2806,0,U,60497,999,9802,.35300848E-3,.14537E-3,0
NUSAT-48 (HENRIETTA LEAVITT),2024-149AG,2026-05-20T07:06:04.622112,15.29935578,.00043152,97.3904,221.9371,36.5688,323.5846,0,U,60498,999,9787,.23797424E-3,.6822E-4,0
FLOCK 4BE-30,2024-149AH,2026-05-20T07:01:34.969440,15.49718071,.00019679,97.3783,225.0231,167.6838,192.4461,0,U,60499,999,9744,.13217403E-2,.73831E-3,0
